2023-039A               
1 55973U 23039A   23110.30069459  .00008715  00000+0  42637-3 0  9994
2 55973  97.4209 260.4764 0016178 149.9223 304.4164 15.18320897  4396
2023-039B               
1 55974U 23039B   23109.36674902  .00011931  00000+0  57467-3 0  9995
2 55974  97.4134 259.5369 0014306 155.6302 258.9086 15.18805008  4249
2023-039C               
1 55975U 23039C   23110.29345421  .00011864  00000+0  56321-3 0  9994
2 55975  97.4178 260.4742 0011978 154.2176 301.2473 15.19335700  4374
2023-039D               
1 55976U 23039D   23110.16887402  .00011534  00000+0  54100-3 0  9998
2 55976  97.4189 260.3716 0011874 163.5010   7.7906 15.19760162  4353
COSMOS 2567             
1 55978U 23040A   23110.60033324  .00006351  00000+0  28384-3 0  9993
2 55978  97.6332   5.3206 0009071 204.6883 245.9571 15.21661474  4329
SL-4 R/B                
1 55979U 23040B   23110.09337089  .00068623  00000+0  86310-3 0  9995
2 55979  97.6410   5.9542 0102724 335.7388 160.1869 15.53236215  4314
2023-041A               
1 55981U 23041A   23110.26606403  .00292895  00000+0  49234-2 0  9990
2 55981  42.0119  96.8971 0013390 144.8626 215.3103 15.49843337  4156
2023-041B               
1 55982U 23041B   23109.70014732  .00027842  00000+0  70474-3 0  9995
2 55982  42.0156 101.3439 0004660 116.3484 243.7835 15.39169613  4058
2023-041C               
1 55983U 23041C   23110.27470015  .00026260  00000+0  65211-3 0  9996
2 55983  42.0156  97.8593 0006598 108.1771 251.9788 15.39766627  4145
STARLINK-5905           
1 55986U 23042A   23109.91667824 -.00013042  00000+0 -23015-3 0  9997
2 55986  43.0022  36.9307 0001445 258.3044 129.2945 15.48914172  1302
STARLINK-5915           
1 55987U 23042B   23110.25001157  .00059228  00000+0  10699-2 0  9995
2 55987  43.0023  34.9727 0001596 273.6916 180.8421 15.48884498  4529
STARLINK-5916           
1 55988U 23042C   23109.91667824 -.00009255  00000+0 -16148-3 0  9999
2 55988  43.0024  36.9273 0001311 257.1144 132.2031 15.48912864  1304
STARLINK-5947           
1 55989U 23042D   23109.91667824 -.00026879  00000+0 -48148-3 0  9996
2 55989  43.0022  36.9233 0001205 260.7496 130.2862 15.48921987  1307
STARLINK-5946           
1 55990U 23042E   23109.91667824 -.00014000  00000+0 -24752-3 0  9996
2 55990  43.0025  36.9295 0001394 258.3848 130.0737 15.48914618  1305
STARLINK-5948           
1 55991U 23042F   23109.91667824 -.00002425  00000+0 -37813-4 0  9998
2 55991  43.0019  36.9112 0001438 263.9022 131.4356 15.48906521  1308
STARLINK-5962           
1 55992U 23042G   23110.25001157  .00054520  00000+0  98588-3 0  9995
2 55992  43.0025  34.9754 0001337 272.7885 180.8856 15.48885774  4525
STARLINK-5969           
1 55993U 23042H   23109.91667824 -.00041894  00000+0 -75512-3 0  9990
2 55993  43.0024  36.9246 0001346 260.7821 129.3966 15.48927802  1302
STARLINK-5956           
1 55994U 23042J   23110.25001157  .00055054  00000+0  99540-3 0  9999
2 55994  43.0026  34.9711 0001563 273.9905 181.4023 15.48885922  4526
STARLINK-5957           
1 55995U 23042K   23110.25001157  .00063813  00000+0  11517-2 0  9999
2 55995  43.0020  34.9758 0001362 271.5237 181.2923 15.48881726  4526
STARLINK-5903           
1 55996U 23042L   23110.25001157  .00059793  00000+0  10799-2 0  9993
2 55996  43.0022  34.9616 0001506 269.2740 189.5563 15.48886203  4521
STARLINK-5904           
1 55997U 23042M   23110.25001157  .00059374  00000+0  10725-2 0  9998
2 55997  43.0023  34.9665 0001516 267.2821 189.8314 15.48884527  4520
STARLINK-5902           
1 55998U 23042N   23110.25001157  .00053561  00000+0  96878-3 0  9995
2 55998  43.0023  34.9581 0001427 270.1932 190.3564 15.48885513  4525
STARLINK-5901           
1 55999U 23042P   23109.91667824 -.00005807  00000+0 -99033-4 0  9995
2 55999  43.0024  36.9086 0001395 259.3464 137.7102 15.48908739  1304
STARLINK-5910           
1 56000U 23042Q   23109.91667824 -.00000438  00000+0 -18750-5 0  9992
2 56000  43.0026  36.8946 0001332 254.5363 148.5312 15.48908329  1308
STARLINK-5944           
1 56001U 23042R   23109.91667824 -.00011966  00000+0 -21063-3 0  9990
2 56001  43.0027  36.9001 0001444 257.8933 142.5973 15.48913587  1305
STARLINK-5799           
1 56002U 23042S   23110.25001157  .00058236  00000+0  10522-2 0  9997
2 56002  43.0027  34.9530 0001431 269.9410 193.1870 15.48884964  4522
STARLINK-5789           
1 56003U 23042T   23109.91667824 -.00004197  00000+0 -69895-4 0  9996
2 56003  43.0021  36.9043 0001238 259.0579 139.7174 15.48907286  1308
STARLINK-5787           
1 56004U 23042U   23110.25001157  .00057862  00000+0  10456-2 0  9999
2 56004  43.0029  34.9491 0001360 272.2149 192.6328 15.48883252  4520
STARLINK-5801           
1 56005U 23042V   23110.25001157  .00050802  00000+0  91946-3 0  9991
2 56005  43.0027  34.9528 0001501 268.5925 193.6756 15.48886985  4529
STARLINK-5794           
1 56006U 23042W   23110.25001157  .00056178  00000+0  10155-2 0  9996
2 56006  43.0026  34.9419 0001303 271.5714 195.8534 15.48884977  4525
STARLINK-5806           
1 56007U 23042X   23110.25001157  .00063760  00000+0  11507-2 0  9994
2 56007  43.0025  34.9452 0001339 268.7564 196.9499 15.48883174  4522
STARLINK-5803           
1 56008U 23042Y   23110.25001157  .00059254  00000+0  10704-2 0  9996
2 56008  43.0027  34.9400 0001294 268.5573 199.7272 15.48883793  4523
STARLINK-5964           
1 56009U 23042Z   23110.25001157  .00056206  00000+0  10160-2 0  9997
2 56009  43.0027  34.9451 0001310 269.3471 197.2183 15.48885009  4521
STARLINK-5968           
1 56010U 23042AA  23110.25001157  .00060281  00000+0  10887-2 0  9993
2 56010  43.0027  34.9389 0001246 269.9512 199.1927 15.48883572  4523
STARLINK-5936           
1 56011U 23042AB  23110.13685969  .00016519  00000+0  12908-3 0  9992
2 56011  43.0023  34.3093 0001833 273.9949  86.0709 15.71370418  4525
STARLINK-5940           
1 56012U 23042AC  23110.07350913  .00015665  00000+0  12260-3 0  9996
2 56012  43.0027  34.6946 0001888 246.8988 113.1681 15.71370329  4513
STARLINK-5941           
1 56013U 23042AD  23110.25001157  .00060489  00000+0  10924-2 0  9998
2 56013  43.0028  34.9367 0001129 271.3008 198.7026 15.48883970  4527
STARLINK-5942           
1 56014U 23042AE  23110.13675591  .00008702  00000+0  69705-4 0  9998
2 56014  43.0037  34.3090 0001769 274.9239  85.1427 15.71365831  4521
STARLINK-5939           
1 56015U 23042AF  23110.13697685 -.00009247  00000+0 -67230-4 0  9995
2 56015  43.0032  34.3102 0001515 256.5727 103.4972 15.71326290  4523
STARLINK-5943           
1 56016U 23042AG  23110.07255997  .00003698  00000+0  31614-4 0  9994
2 56016  43.0033  34.6869 0001707 242.6065 117.4629 15.71369180  4510
STARLINK-5934           
1 56017U 23042AH  23110.07298266  .00009232  00000+0  73737-4 0  9993
2 56017  43.0016  34.6874 0002231 239.3142 120.7506 15.71365825  4513
STARLINK-5945           
1 56018U 23042AJ  23109.18280179  .00002380  00000+0  21586-4 0  9990
2 56018  43.0025  40.0565 0001694 251.3139 108.7545 15.71360264  4032
STARLINK-5949           
1 56019U 23042AK  23109.24677665  .00008737  00000+0  69936-4 0  9991
2 56019  43.0023  39.6739 0001537 263.6225  96.4468 15.71378141  4047
STARLINK-5912           
1 56020U 23042AL  23110.13633535  .00005450  00000+0  44977-4 0  9998
2 56020  43.0034  34.3059 0001463 265.6520  94.4180 15.71356957  4529
STARLINK-5907           
1 56021U 23042AM  23110.07287739  .00008960  00000+0  71664-4 0  9995
2 56021  43.0029  34.6894 0001787 242.6457 117.4229 15.71368120  4511
STARLINK-5783           
1 56022U 23042AN  23109.18228179  .00002329  00000+0  21195-4 0  9996
2 56022  43.0013  40.0512 0001269 263.7733  96.2990 15.71357256  4033
STARLINK-5771           
1 56023U 23042AP  23109.24615437  .00004990  00000+0  41469-4 0  9993
2 56023  43.0006  39.6745 0001867 240.3825 119.6856 15.71361996  4380
STARLINK-5772           
1 56024U 23042AQ  23110.13539045  .00009940  00000+0  79138-4 0  9998
2 56024  43.0017  34.2980 0001143 261.0646  99.0093 15.71360889  4523
STARLINK-5766           
1 56025U 23042AR  23110.07235399  .00020738  00000+0  16110-3 0  9995
2 56025  43.0020  34.6866 0001880 239.1051 120.9632 15.71368815  4518
STARLINK-5770           
1 56026U 23042AS  23109.24573403  .00014998  00000+0  11755-3 0  9995
2 56026  43.0021  39.6666 0001517 251.5037 108.5666 15.71367416  4382
STARLINK-5777           
1 56027U 23042AT  23109.18228367 -.00056571  00000+0 -43014-3 0  9993
2 56027  43.0031  40.0523 0000961 326.4569  33.6238 15.71397565  4039
STARLINK-5779           
1 56028U 23042AU  23109.24531349  .00025345  00000+0  19611-3 0  9997
2 56028  43.0020  39.6655 0002253 242.8095 117.2543 15.71357372  4387
STARLINK-5774           
1 56029U 23042AV  23110.07192994  .00010338  00000+0  82130-4 0  9993
2 56029  43.0034  34.6815 0001970 230.7762 129.2932 15.71370291  4513
STARLINK-5781           
1 56030U 23042AW  23109.18164936  .00002903  00000+0  25577-4 0  9991
2 56030  43.0002  40.0455 0001283 242.5888 117.4849 15.71354165  4033
STARLINK-5785           
1 56031U 23042AX  23110.19884355  .00018008  00000+0  14035-3 0  9998
2 56031  43.0027  33.9144 0001841 241.8714 118.1968 15.71376408  4536
STARLINK-5786           
1 56032U 23042AY  23109.24488848  .00007002  00000+0  56770-4 0  9995
2 56032  43.0018  39.6621 0001891 252.8982 107.1679 15.71367219  4047
STARLINK-5784           
1 56033U 23042AZ  23110.07130037  .00006264  00000+0  51170-4 0  9991
2 56033  43.0030  34.6767 0001809 239.9665 120.1024 15.71361091  4514
STARLINK-5782           
1 56034U 23042BA  23110.07109081  .00017434  00000+0  13603-3 0  9996
2 56034  43.0021  34.6762 0001670 253.1574 106.9110 15.71369896  4512
STARLINK-5792           
1 56035U 23042BB  23110.07140573  .00022258  00000+0  17261-3 0  9992
2 56035  43.0025  34.6785 0002076 260.5488  99.5145 15.71370271  4513
